{
    "links": {
        "self": "http://www.neowsapp.com/rest/v1/neo/54017013?api_key=iIulBulltgU6a56xZRHN4H3l9WmuAYTsLGpBGhQ2"
    },
    "id": "54017013",
    "neo_reference_id": "54017013",
    "name": "(2020 JS1)",
    "designation": "2020 JS1",
    "nasa_jpl_url": "http://ssd.jpl.nasa.gov/sbdb.cgi?sstr=54017013",
    "absolute_magnitude_h": 26.341,
    "estimated_diameter": {
        "kilometers": {
            "estimated_diameter_min": 0.01433359,
            "estimated_diameter_max": 0.0320508815
        },
        "meters": {
            "estimated_diameter_min": 14.3335899642,
            "estimated_diameter_max": 32.0508815216
        },
        "miles": {
            "estimated_diameter_min": 0.0089064771,
            "estimated_diameter_max": 0.0199154883
        },
        "feet": {
            "estimated_diameter_min": 47.0262152981,
            "estimated_diameter_max": 105.1538141312
        }
    },
    "is_potentially_hazardous_asteroid": false,
    "close_approach_data": [
        {
            "close_approach_date": "2020-06-11",
            "close_approach_date_full": "2020-Jun-11 23:21",
            "epoch_date_close_approach": 1591917660000,
            "relative_velocity": {
                "kilometers_per_second": "5.0240674501",
                "kilometers_per_hour": "18086.6428202118",
                "miles_per_hour": "11238.3364790366"
            },
            "miss_distance": {
                "astronomical": "0.0253113488",
                "lunar": "9.8461146832",
                "kilometers": "3786523.867307056",
                "miles": "2352836.8286511328"
            },
            "orbiting_body": "Earth"
        }
    ],
    "orbital_data": {
        "orbit_id": "1",
        "orbit_determination_date": "2020-05-15 11:42:04",
        "first_observation_date": "2020-05-13",
        "last_observation_date": "2020-05-14",
        "data_arc_in_days": 1,
        "observations_used": 8,
        "orbit_uncertainty": "9",
        "minimum_orbit_intersection": ".0123909",
        "jupiter_tisserand_invariant": "4.422",
        "epoch_osculation": "2458982.5",
        "eccentricity": ".3280566368863531",
        "semi_major_axis": "1.531610373362801",
        "inclination": ".3244232366657108",
        "ascending_node_longitude": "100.2416654731642",
        "orbital_period": "692.342314387431",
        "perihelion_distance": "1.029155425257149",
        "perihelion_argument": "175.8595533228412",
        "aphelion_distance": "2.034065321468454",
        "perihelion_time": "2459025.550867403621",
        "mean_anomaly": "337.614668433178",
        "mean_motion": ".5199739962716564",
        "equinox": "J2000",
        "orbit_class": {
            "orbit_class_type": "AMO",
            "orbit_class_description": "Near-Earth asteroid orbits similar to that of 1221 Amor",
            "orbit_class_range": "1.017 AU < q (perihelion) < 1.3 AU"
        }
    },
    "is_sentry_object": false
}